#dP2020  5 28  0  0  0.00000000      97 __u+U IGS14 FIT  IAC
## 2107 345600.00000000   900.00000000 58997 0.0000000000000
+  124   C01C02C03C04C05C06C07C08C09C10C11C12C13C14C16C19C20
+        C21C22C23C24C25C26C27C28C29C30C32C33C34C35C36C37C38
+        C39C40C43C44C45C46C60E01E02E03E04E05E07E08E09E11E12
+        E13E14E15E18E19E21E24E25E26E27E30E31E33E36G01G02G03
+        G04G05G06G07G08G09G10G11G12G13G14G15G16G17G18G19G20
+        G21G22G23G24G25G26G27G28G29G30G31G32J01J02J03J07R01
+        R02R03R04R05R07R08R09R11R12R13R14R15R16R17R18R19R20
+        R21R22R23R24R26  0  0  0  0  0  0  0  0  0  0  0  0
++         0  0  0  0  0  0  0  0  0  0  0  0  0  0  0  0  0
++         0  0  0  0  0  0  0  0  0  0  0  0  0  0  0  0  0
++         0  0  0  0  0  0  0  0  0  0  0  0  0  0  0  0  0
++         0  0  0  0  0  0  0  0  0  0  0  0  0  0  0  0  0
++         0  0  0  0  0  0  0  0  0  0  0  0  0  0  0  0  0
++         0  0  0  0  0  0  0  0  0  0  0  0  0  0  0  0  0
++         0  0  0  0  0  0  0  0  0  0  0  0  0  0  0  0  0
++         0  0  0  0  0  0  0  0  0  0  0  0  0  0  0  0  0
%c M  cc GPS ccc cccc cccc cccc cccc ccccc ccccc ccccc ccccc
%c cc cc ccc ccc cccc cccc cccc cccc ccccc ccccc ccccc ccccc
%f  1.2500000  1.025000000  0.00000000000  0.000000000000000
%f  0.0000000  0.000000000  0.00000000000  0.000000000000000
%i    0    0    0    0      0      0      0      0         0
%i    0    0    0    0      0      0      0      0         0
/* INFORMATION & ANALYSIS CENTER (IAC)            FINAL DATA
/* S/V CLOCKS ARE ALIGNED TO GNSS TIME                      
/* G:C1WC2W R:C1PC2P E:C1XC5X C:C2IC6I J:C1CC2S             
/* PCV:IGS14_2101 OL/AL:FES2004  NONE     YN ORB:CoN CLK:CoN
*  2020 05 28 15 45  0.00000000
PC01 -34322.398632  24469.098791   -385.615380   -471.122243
PC02   4380.544997  41929.993861   1150.707827    320.315481
PC03 -14834.509423  39506.865738    173.930136    857.654392
PC04 -39622.345710  14432.944258   -503.106979 999999.999999
PC05      0.000000      0.000000      0.000000 999999.999999
PC06  -7509.554711  29830.169028  29423.387013    740.710311
PC07 -22111.919437  23400.119860 -27279.733242    -69.214760
PC08 -20408.522475  36700.088910   -103.933150   -278.303740
PC09   5768.023817  38331.963637  17324.674678    571.568385
PC10  -4815.370401  26249.603757 -32525.655590   -277.521745
PC11  10335.597214 -15222.211347  21048.880752   -393.059854
PC12  16410.930145   5407.763832  21935.204788    385.005501
PC13 -10154.159470  38391.965717  13889.452881    460.311689
PC14  19034.535704  -8530.402876 -18474.550389    461.632375
PC16  -4137.808323  31520.816252  27868.382353   -631.608303
PC19  -9860.791599  13552.375335  22347.747255    426.542265
PC20 -24811.829927   2763.409563  12529.066063   -864.869939
PC21  25463.491443  10150.644078   5176.319864   -456.707213
PC22  11097.291858  16724.739098  19383.978491   -796.585572
PC23   -841.181771 -19353.590830  20089.029332   -865.038312
PC24  22802.853757 -11762.515837 -10998.897428   -808.003073
PC25  14789.633121 -22656.399830   6863.933292   -632.568460
PC26  17112.521871   4256.250486 -21638.653953    697.324955
PC27 -16042.355340 -15371.311366 -16890.778187    337.826947
PC28  -7578.758418 -26846.442254   -862.093252   -224.011968
PC29  -4425.574485  22739.283157 -15571.296164    234.720782
PC30 -15005.878312   5257.722493 -22937.793127    323.661144
PC32 -25588.246590  -9916.198824  -5087.506284   -885.665312
PC33   9824.256945 -13594.952488 -22286.295766   -825.666450
PC34  14904.893281  -5701.215884  22883.249325   -759.770616
PC35   8381.926195  26629.255530    681.969927   -823.387066
PC36 -15490.620121  22246.278255  -6621.623745   -836.216076
PC37 -16555.799647  -5299.877344  21847.850663   -845.370073
PC38 -16797.188394  38279.611919   4914.658769     80.397619
PC39    369.211286  33066.060056  26217.291188     16.637594
PC40 -11812.928103  21024.868664 -34617.100779     47.429006
PC43   4835.942310 -22534.022591  15710.889015   -213.705347
PC44  16574.657380  15054.774022  16670.101784   -244.601211
PC45    809.099300  19283.215847 -20145.064028    142.443517
PC46 -22698.954925  12246.651856  10632.145635    812.758557
PC60      0.000000      0.000000      0.000000 999999.999999
PE01  16055.360256  10174.527659 -22692.076675   -865.980225
PE02 -16135.146102 -10117.350550  22654.194358    136.497339
PE03 -21354.916882 -20305.613614  -2885.507948   -303.663616
PE04  24728.549989   6859.804452 -14737.329454   -534.529660
PE05  -5397.116316 -22004.345847 -19042.651337   -376.397162
PE07 -13601.331779  10839.249159  23965.814507   -388.024786
PE08 -24682.240148  -6575.681767  14979.694364   6171.825314
PE09  13327.189166 -10904.781956 -24063.226024   6046.656575
PE11  13473.782732 -21613.755447  15056.007682   3109.198841
PE12  16493.219636   -690.805798  24567.135600   5783.029222
PE13 -13435.866648  21502.362211 -15280.113802    401.177266
PE14 -23182.884035 -14225.785502 -14960.098049  -1029.800329
PE15 -16437.718043   1046.683003 -24590.025618    865.481898
PE18  15590.400909  20138.751039   3827.101204  -1129.674710
PE19  20171.521142  21100.606352   4915.099804  -2790.722868
PE21  -4800.120270  18113.612916 -22918.576476   -601.440080
PE24  23442.876940 -15390.863727   9483.492100   5432.042741
PE25   4937.531886 -18131.495862  22871.744400   -511.290667
PE26  -2439.799353  29304.804079   3399.895125   3137.539499
PE27 -23198.302257  15599.471436  -9728.190600    210.426715
PE30 -27838.640357   3532.644836   9396.945943   3871.145077
PE31  27884.043526  -3941.731978  -9104.835211   -472.686606
PE33   9783.299772  20050.687379  19462.647982   -466.764296
PE36   2549.382048 -29332.289980  -2996.765730    554.289440
PG01  14717.400221 -20794.968519   6632.223380   -386.105286
PG02 -16042.693544   1860.443078 -20440.130931   -463.213192
PG03  17582.277582 -12398.588740 -15563.358061   -190.530361
PG04   6363.607909 -16040.678084 -20169.477078    -95.257481
PG05 -26515.640934   1343.578934  -2662.506419    -13.546439
PG06 -10989.678469 -10752.571218 -21596.833118   -279.450119
PG07   3295.175263 -24085.851792  10395.023356   -291.512397
PG08  14639.437468  -5082.606522  21611.943594    -35.565558
PG09  -4299.283040 -22395.923081 -13650.987798   -225.905250
PG10  13921.548157  12099.635455  19285.079535   -354.661327
PG11  12829.201823 -15193.141687  17258.693048   -264.567435
PG12 -18714.799799  10848.456650 -15541.358871    112.659937
PG13 -17381.651834  -3985.716274  19596.296181     13.666315
PG14  17853.502868  17173.712981  -9478.883050     -9.857603
PG15 -14359.117279   7299.547172  20841.616329   -228.116133
PG16  26801.272520    374.566962   -623.309616   -163.624283
PG17 -14422.606956 -22304.494925   -694.866518    271.954185
PG18  -4397.507657  24285.249319   9781.046261    203.688070
PG19 -17286.077156 -18022.652248  -9382.404617   -152.732764
PG20   1739.326237  15720.398763  21248.208081    527.617510
PG21   2216.099172  22818.929715  14430.946786      4.459800
PG22  23520.369503  -9656.656262  -7216.909082   -780.600930
PG23  -7982.030262 -22914.470497  -9980.141092   -110.483504
PG24 -14586.900140  20183.137390   8495.406526    -13.590242
PG25      0.000000      0.000000      0.000000 999999.999999
PG26  23066.221070   5854.747846 -12056.793358    214.928447
PG27  18966.288424   6455.639755  17464.863014   -305.774699
PG28 -14023.075724 -12870.326718  19044.848823    713.554535
PG29     21.840991  20949.906277 -16353.845392   -114.890700
PG30  -5211.367888 -18831.581383  17935.365686   -229.816841
PG31  12419.529988   9173.147762 -21616.154661    -45.410231
PG32  16441.628993  20885.189647  -1720.602366    289.413322
PJ01 -28487.400300  21876.086409  27174.417211   -296.501574
PJ02 -35630.485694  21621.436889  -2108.800427     -0.243798
PJ03 -19575.899722  24719.017012 -23420.632567     -3.459355
PJ07 -25422.378484  33643.809413     36.906101      0.004741
PR01  20012.275562  13357.489160   8452.305101     62.208937
PR02  21951.001523   3868.689545 -12408.147762    428.875277
PR03   9632.692159  -7305.073480 -22420.314851     15.813355
PR04  -8179.388179 -14005.966696 -19655.096888     50.737514
PR05 -21220.339724 -12918.914255  -5726.851921     51.283013
PR07  -8997.369221   7701.600090  22629.008239    -37.001855
PR08   8081.956012  14141.291446  19694.121081    -52.493863
PR09 -21830.610372  11205.142531   7113.715840    135.017999
PR11  -3434.185734  14655.504079 -20594.850272    -25.142008
PR12  12021.024116   4312.453076 -22058.383285    134.478545
PR13  21272.673841  -8934.029654 -10888.827157    -39.264463
PR14  18014.823930 -16689.223963   6878.030324     51.686949
PR15   4358.600428 -14827.547081  20311.079916    106.554366
PR16 -12544.832726  -3878.718684  21822.820742     -3.791968
PR17   5999.261029 -18544.236251  16479.431978    328.504561
PR18  -1593.643489 -25411.068822    933.961060     36.912748
PR19  -7702.722197 -19279.892850 -14823.283711    -95.407318
PR20 -10376.664730    282.864505 -23296.758224   -412.839047
PR21  -5619.156165  19194.355270 -15822.861754   -127.542794
PR22   2639.233944  25382.787709   1677.124086     -3.376317
PR23   9740.936796  13327.661577  19436.269901    308.473724
PR24  10803.920725  -1154.259383  23090.334795      0.387460
PR26 -10572.528994  -4848.910284 -22696.389694   -394.543706
EOF
